CCSDS_OMM_VERS = 2.0
CREATION_DATE  = 
ORIGINATOR     = 

OBJECT_NAME    = STARLINK-36349
OBJECT_ID      = 2026-038D
CENTER_NAME    = EARTH
REF_FRAME      = TEME
TIME_SYSTEM    = UTC
MEAN_ELEMENT_THEORY = SGP/SGP4

EPOCH          = 2026-03-15T06:00:00.999648
MEAN_MOTION    = 15.75157840
ECCENTRICITY   = .00010166
INCLINATION    = 97.2860
RA_OF_ASC_NODE = 84.8315
ARG_OF_PERICENTER = 56.1859
MEAN_ANOMALY   = 254.3721

EPHEMERIS_TYPE = 0
CLASSIFICATION_TYPE = U
NORAD_CAT_ID   = 67964
ELEMENT_SET_NO = 999
REV_AT_EPOCH   = 409
BSTAR          = .40491289E-3
MEAN_MOTION_DOT = .6061E-3
MEAN_MOTION_DDOT = 0

CCSDS_OMM_VERS = 2.0
CREATION_DATE  = 
ORIGINATOR     = 

OBJECT_NAME    = STARLINK-36806
OBJECT_ID      = 2026-038E
CENTER_NAME    = EARTH
REF_FRAME      = TEME
TIME_SYSTEM    = UTC
MEAN_ELEMENT_THEORY = SGP/SGP4

EPOCH          = 2026-03-15T06:00:00.999648
MEAN_MOTION    = 15.75154251
ECCENTRICITY   = .00014548
INCLINATION    = 97.2862
RA_OF_ASC_NODE = 84.8360
ARG_OF_PERICENTER = 100.2114
MEAN_ANOMALY   = 224.3502

EPHEMERIS_TYPE = 0
CLASSIFICATION_TYPE = U
NORAD_CAT_ID   = 67965
ELEMENT_SET_NO = 999
REV_AT_EPOCH   = 409
BSTAR          = .43455171E-3
MEAN_MOTION_DOT = .65081E-3
MEAN_MOTION_DDOT = 0

CCSDS_OMM_VERS = 2.0
CREATION_DATE  = 
ORIGINATOR     = 

OBJECT_NAME    = STARLINK-36820
OBJECT_ID      = 2026-038F
CENTER_NAME    = EARTH
REF_FRAME      = TEME
TIME_SYSTEM    = UTC
MEAN_ELEMENT_THEORY = SGP/SGP4

EPOCH          = 2026-03-15T06:00:00.999648
MEAN_MOTION    = 15.75149305
ECCENTRICITY   = .00012659
INCLINATION    = 97.2877
RA_OF_ASC_NODE = 84.8387
ARG_OF_PERICENTER = 114.9967
MEAN_ANOMALY   = 215.5593

EPHEMERIS_TYPE = 0
CLASSIFICATION_TYPE = U
NORAD_CAT_ID   = 67966
ELEMENT_SET_NO = 999
REV_AT_EPOCH   = 409
BSTAR          = .45132064E-3
MEAN_MOTION_DOT = .67603E-3
MEAN_MOTION_DDOT = 0

CCSDS_OMM_VERS = 2.0
CREATION_DATE  = 
ORIGINATOR     = 

OBJECT_NAME    = STARLINK-36819
OBJECT_ID      = 2026-038G
CENTER_NAME    = EARTH
REF_FRAME      = TEME
TIME_SYSTEM    = UTC
MEAN_ELEMENT_THEORY = SGP/SGP4

EPOCH          = 2026-03-15T06:00:00.999648
MEAN_MOTION    = 15.65962668
ECCENTRICITY   = .00013141
INCLINATION    = 97.2839
RA_OF_ASC_NODE = 84.8309
ARG_OF_PERICENTER = 97.7115
MEAN_ANOMALY   = 208.5275

EPHEMERIS_TYPE = 0
CLASSIFICATION_TYPE = U
NORAD_CAT_ID   = 67967
ELEMENT_SET_NO = 999
REV_AT_EPOCH   = 409
BSTAR          = -.26432938E-1
MEAN_MOTION_DOT = -.2366422E-1
MEAN_MOTION_DDOT = 0

CCSDS_OMM_VERS = 2.0
CREATION_DATE  = 
ORIGINATOR     = 

OBJECT_NAME    = STARLINK-36812
OBJECT_ID      = 2026-038H
CENTER_NAME    = EARTH
REF_FRAME      = TEME
TIME_SYSTEM    = UTC
MEAN_ELEMENT_THEORY = SGP/SGP4

EPOCH          = 2026-03-15T06:00:00.999648
MEAN_MOTION    = 15.75127791
ECCENTRICITY   = .00012827
INCLINATION    = 97.2880
RA_OF_ASC_NODE = 84.8423
ARG_OF_PERICENTER = 86.7367
MEAN_ANOMALY   = 255.8304

EPHEMERIS_TYPE = 0
CLASSIFICATION_TYPE = U
NORAD_CAT_ID   = 67968
ELEMENT_SET_NO = 999
REV_AT_EPOCH   = 409
BSTAR          = .67103817E-3
MEAN_MOTION_DOT = .100878E-2
MEAN_MOTION_DDOT = 0

CCSDS_OMM_VERS = 2.0
CREATION_DATE  = 
ORIGINATOR     = 

OBJECT_NAME    = STARLINK-36709
OBJECT_ID      = 2026-038J
CENTER_NAME    = EARTH
REF_FRAME      = TEME
TIME_SYSTEM    = UTC
MEAN_ELEMENT_THEORY = SGP/SGP4

EPOCH          = 2026-03-15T06:00:00.999648
MEAN_MOTION    = 15.75175113
ECCENTRICITY   = .00016327
INCLINATION    = 97.2867
RA_OF_ASC_NODE = 84.8488
ARG_OF_PERICENTER = 73.1681
MEAN_ANOMALY   = 283.3850

EPHEMERIS_TYPE = 0
CLASSIFICATION_TYPE = U
NORAD_CAT_ID   = 67969
ELEMENT_SET_NO = 999
REV_AT_EPOCH   = 409
BSTAR          = .15191268E-3
MEAN_MOTION_DOT = .22575E-3
MEAN_MOTION_DDOT = 0

CCSDS_OMM_VERS = 2.0
CREATION_DATE  = 
ORIGINATOR     = 

OBJECT_NAME    = STARLINK-36319
OBJECT_ID      = 2026-038K
CENTER_NAME    = EARTH
REF_FRAME      = TEME
TIME_SYSTEM    = UTC
MEAN_ELEMENT_THEORY = SGP/SGP4

EPOCH          = 2026-03-15T06:00:00.999648
MEAN_MOTION    = 15.75131312
ECCENTRICITY   = .00016868
INCLINATION    = 97.2881
RA_OF_ASC_NODE = 84.8451
ARG_OF_PERICENTER = 128.7914
MEAN_ANOMALY   = 221.7863

EPHEMERIS_TYPE = 0
CLASSIFICATION_TYPE = U
NORAD_CAT_ID   = 67970
ELEMENT_SET_NO = 999
REV_AT_EPOCH   = 406
BSTAR          = .55763356E-3
MEAN_MOTION_DOT = .83653E-3
MEAN_MOTION_DDOT = 0

CCSDS_OMM_VERS = 2.0
CREATION_DATE  = 
ORIGINATOR     = 

OBJECT_NAME    = STARLINK-36710
OBJECT_ID      = 2026-038L
CENTER_NAME    = EARTH
REF_FRAME      = TEME
TIME_SYSTEM    = UTC
MEAN_ELEMENT_THEORY = SGP/SGP4

EPOCH          = 2026-03-15T06:00:00.999648
MEAN_MOTION    = 15.75172937
ECCENTRICITY   = .00009299
INCLINATION    = 97.2864
RA_OF_ASC_NODE = 84.8531
ARG_OF_PERICENTER = 94.6919
MEAN_ANOMALY   = 271.8757

EPHEMERIS_TYPE = 0
CLASSIFICATION_TYPE = U
NORAD_CAT_ID   = 67971
ELEMENT_SET_NO = 999
REV_AT_EPOCH   = 409
BSTAR          = .13362703E-4
MEAN_MOTION_DOT = .1862E-4
MEAN_MOTION_DDOT = 0

CCSDS_OMM_VERS = 2.0
CREATION_DATE  = 
ORIGINATOR     = 

OBJECT_NAME    = STARLINK-36894
OBJECT_ID      = 2026-038M
CENTER_NAME    = EARTH
REF_FRAME      = TEME
TIME_SYSTEM    = UTC
MEAN_ELEMENT_THEORY = SGP/SGP4

EPOCH          = 2026-03-15T06:00:00.999648
MEAN_MOTION    = 15.75143804
ECCENTRICITY   = .00011867
INCLINATION    = 97.2866
RA_OF_ASC_NODE = 84.8538
ARG_OF_PERICENTER = 52.1363
MEAN_ANOMALY   = 320.4028

EPHEMERIS_TYPE = 0
CLASSIFICATION_TYPE = U
NORAD_CAT_ID   = 67972
ELEMENT_SET_NO = 999
REV_AT_EPOCH   = 409
BSTAR          = .61587102E-3
MEAN_MOTION_DOT = .92547E-3
MEAN_MOTION_DDOT = 0

CCSDS_OMM_VERS = 2.0
CREATION_DATE  = 
ORIGINATOR     = 

OBJECT_NAME    = STARLINK-36900
OBJECT_ID      = 2026-038N
CENTER_NAME    = EARTH
REF_FRAME      = TEME
TIME_SYSTEM    = UTC
MEAN_ELEMENT_THEORY = SGP/SGP4

EPOCH          = 2026-03-15T06:00:00.999648
MEAN_MOTION    = 15.70840306
ECCENTRICITY   = .00013518
INCLINATION    = 97.2844
RA_OF_ASC_NODE = 84.8578
ARG_OF_PERICENTER = 81.9937
MEAN_ANOMALY   = 295.8032

EPHEMERIS_TYPE = 0
CLASSIFICATION_TYPE = U
NORAD_CAT_ID   = 67973
ELEMENT_SET_NO = 999
REV_AT_EPOCH   = 409
BSTAR          = -.21713177E-1
MEAN_MOTION_DOT = -.232549E-1
MEAN_MOTION_DDOT = 0

CCSDS_OMM_VERS = 2.0
CREATION_DATE  = 
ORIGINATOR     = 

OBJECT_NAME    = STARLINK-36901
OBJECT_ID      = 2026-038P
CENTER_NAME    = EARTH
REF_FRAME      = TEME
TIME_SYSTEM    = UTC
MEAN_ELEMENT_THEORY = SGP/SGP4

EPOCH          = 2026-03-15T06:00:00.999648
MEAN_MOTION    = 15.75158148
ECCENTRICITY   = .00008774
INCLINATION    = 97.2865
RA_OF_ASC_NODE = 84.8559
ARG_OF_PERICENTER = 106.9735
MEAN_ANOMALY   = 271.5734

EPHEMERIS_TYPE = 0
CLASSIFICATION_TYPE = U
NORAD_CAT_ID   = 67974
ELEMENT_SET_NO = 999
REV_AT_EPOCH   = 409
BSTAR          = .32785044E-3
MEAN_MOTION_DOT = .48983E-3
MEAN_MOTION_DDOT = 0

CCSDS_OMM_VERS = 2.0
CREATION_DATE  = 
ORIGINATOR     = 

OBJECT_NAME    = STARLINK-36883
OBJECT_ID      = 2026-038Q
CENTER_NAME    = EARTH
REF_FRAME      = TEME
TIME_SYSTEM    = UTC
MEAN_ELEMENT_THEORY = SGP/SGP4

EPOCH          = 2026-03-15T06:00:00.999648
MEAN_MOTION    = 15.75148849
ECCENTRICITY   = .00013917
INCLINATION    = 97.2852
RA_OF_ASC_NODE = 84.8693
ARG_OF_PERICENTER = 77.2477
MEAN_ANOMALY   = 337.3282

EPHEMERIS_TYPE = 0
CLASSIFICATION_TYPE = U
NORAD_CAT_ID   = 67975
ELEMENT_SET_NO = 999
REV_AT_EPOCH   = 409
BSTAR          = .26191281E-3
MEAN_MOTION_DOT = .39045E-3
MEAN_MOTION_DDOT = 0

